{
    "links": {
        "self": "http://www.neowsapp.com/rest/v1/neo/3479126?api_key=iIulBulltgU6a56xZRHN4H3l9WmuAYTsLGpBGhQ2"
    },
    "id": "3479126",
    "neo_reference_id": "3479126",
    "name": "(2009 WN106)",
    "designation": "2009 WN106",
    "nasa_jpl_url": "http://ssd.jpl.nasa.gov/sbdb.cgi?sstr=3479126",
    "absolute_magnitude_h": 24.8,
    "estimated_diameter": {
        "kilometers": {
            "estimated_diameter_min": 0.0291443905,
            "estimated_diameter_max": 0.0651688382
        },
        "meters": {
            "estimated_diameter_min": 29.1443904535,
            "estimated_diameter_max": 65.1688382168
        },
        "miles": {
            "estimated_diameter_min": 0.018109479,
            "estimated_diameter_max": 0.0404940262
        },
        "feet": {
            "estimated_diameter_min": 95.6180819754,
            "estimated_diameter_max": 213.8085311752
        }
    },
    "is_potentially_hazardous_asteroid": false,
    "close_approach_data": [
        {
            "close_approach_date": "1907-12-28",
            "close_approach_date_full": "1907-Dec-28 18:01",
            "epoch_date_close_approach": -1956895140000,
            "relative_velocity": {
                "kilometers_per_second": "9.0938122543",
                "kilometers_per_hour": "32737.7241153643",
                "miles_per_hour": "20341.9486315718"
            },
            "miss_distance": {
                "astronomical": "0.2115979745",
                "lunar": "82.3116120805",
                "kilometers": "31654606.281514315",
                "miles": "19669260.267614947"
            },
            "orbiting_body": "Earth"
        },
        {
            "close_approach_date": "1925-11-01",
            "close_approach_date_full": "1925-Nov-01 01:24",
            "epoch_date_close_approach": -1393799760000,
            "relative_velocity": {
                "kilometers_per_second": "15.8703586378",
                "kilometers_per_hour": "57133.2910961902",
                "miles_per_hour": "35500.4052369633"
            },
            "miss_distance": {
                "astronomical": "0.3674045185",
                "lunar": "142.9203576965",
                "kilometers": "54962933.395975595",
                "miles": "34152383.145209411"
            },
            "orbiting_body": "Earth"
        },
        {
            "close_approach_date": "2009-11-26",
            "close_approach_date_full": "2009-Nov-26 12:11",
            "epoch_date_close_approach": 1259237460000,
            "relative_velocity": {
                "kilometers_per_second": "7.8002508391",
                "kilometers_per_hour": "28080.9030207651",
                "miles_per_hour": "17448.381101986"
            },
            "miss_distance": {
                "astronomical": "0.0433953638",
                "lunar": "16.8807965182",
                "kilometers": "6491853.992355106",
                "miles": "4033851.0186922228"
            },
            "orbiting_body": "Earth"
        },
        {
            "close_approach_date": "2018-10-28",
            "close_approach_date_full": "2018-Oct-28 03:12",
            "epoch_date_close_approach": 1540696320000,
            "relative_velocity": {
                "kilometers_per_second": "18.2116724852",
                "kilometers_per_hour": "65562.0209465695",
                "miles_per_hour": "40737.6901820504"
            },
            "miss_distance": {
                "astronomical": "0.4503030406",
                "lunar": "175.1678827934",
                "kilometers": "67364375.728283522",
                "miles": "41858282.0832237236"
            },
            "orbiting_body": "Earth"
        },
        {
            "close_approach_date": "2085-01-26",
            "close_approach_date_full": "2085-Jan-26 16:00",
            "epoch_date_close_approach": 3631363200000,
            "relative_velocity": {
                "kilometers_per_second": "15.314156855",
                "kilometers_per_hour": "55130.964678122",
                "miles_per_hour": "34256.2374690253"
            },
            "miss_distance": {
                "astronomical": "0.4206764998",
                "lunar": "163.6431584222",
                "kilometers": "62932308.329135426",
                "miles": "39104323.1041678388"
            },
            "orbiting_body": "Earth"
        }
    ],
    "orbital_data": {
        "orbit_id": "8",
        "orbit_determination_date": "2017-04-06 08:58:50",
        "first_observation_date": "2009-11-26",
        "last_observation_date": "2009-12-05",
        "data_arc_in_days": 9,
        "observations_used": 35,
        "orbit_uncertainty": "8",
        "minimum_orbit_intersection": ".0395507",
        "jupiter_tisserand_invariant": "4.522",
        "epoch_osculation": "2455163.5",
        "eccentricity": ".3158110599586864",
        "semi_major_axis": "1.473269674925258",
        "inclination": "11.4122476462213",
        "ascending_node_longitude": "62.03102341235053",
        "orbital_period": "653.1633402309817",
        "perihelion_distance": "1.007994817282123",
        "perihelion_argument": "24.53579478329834",
        "aphelion_distance": "1.938544532568393",
        "perihelion_time": "2455181.235610149280",
        "mean_anomaly": "350.2247734058637",
        "mean_motion": ".5511638174192252",
        "equinox": "J2000",
        "orbit_class": {
            "orbit_class_type": "APO",
            "orbit_class_description": "Near-Earth asteroid orbits which cross the Earth’s orbit similar to that of 1862 Apollo",
            "orbit_class_range": "a (semi-major axis) > 1.0 AU; q (perihelion) < 1.017 AU"
        }
    },
    "is_sentry_object": false
}